ENDUROSAT ONE           
1 43551U 98067NZ  20289.40008140  .12819970  12606-4  34454-3 0  9995
2 43551  51.6143   6.3935 0004068 320.9805  39.0930 16.45548142129489
EQUISAT                 
1 43552U 98067PA  20289.55778791  .00060700  00000-0  27227-3 0  9995
2 43552  51.6306  28.2041 0002145 273.1861  86.8896 15.83545265129178
AEROCUBE 12A            
1 43556U 18046C   20289.36163899  .00002302  00000-0  89908-4 0  9993
2 43556  51.6416 249.2695 0008321   9.7767 350.3373 15.30177276125736
AEROCUBE 12B            
1 43557U 18046D   20289.38082896  .00001757  00000-0  72242-4 0  9999
2 43557  51.6417 250.1309 0008335   9.3465 350.7669 15.29842772125670
UITMSAT-1               
1 43589U 98067PD  20289.54160529  .00126812  17187-4  37670-3 0  9996
2 43589  51.6314  21.8458 0004758 326.3061  33.7643 15.92267192124999
MAYA-1                  
1 43590U 98067PE  20289.53314838  .00123501  16882-4  36657-3 0  9998
2 43590  51.6259  21.7180 0004525 329.2706  30.8035 15.92298287124925
BHUTAN-1                
1 43591U 98067PF  20289.48695312  .00130641  17608-4  37717-3 0  9990
2 43591  51.6320  21.5692 0004821 328.1986  31.8729 15.92796503124923
SIRIUSSAT-1             
1 43595U 98067PG  20289.84016360  .00057230  00000-0  23108-3 0  9999
2 43595  51.6273  28.3528 0005350 344.0051  16.6644 15.85755741124046
SIRIUSSAT-2             
1 43596U 98067PH  20289.84660215  .00107888  00000-0  43069-3 0  9997
2 43596  51.6250  29.2326 0001579 302.2769  57.0726 15.85761541124033
SURFSAT                 
1 43614U 18070B   20289.53121813  .00002960  00000-0  74743-4 0  9995
2 43614  93.0294 204.3035 0012631 225.2693 134.7534 15.39822001116956
CP7 (DAVE)              
1 43615U 18070C   20289.83513335  .00002799  00000-0  71081-4 0  9995
2 43615  93.0298 204.4122 0012859 223.6295 136.3944 15.39643197116995
ELFIN-B                 
1 43616U 18070D   20289.43587112  .00004168  00000-0  10023-3 0  9996
2 43616  93.0255 204.2338 0012958 226.2073 133.8111 15.41274585116991
ELFIN-A                 
1 43617U 18070E   20289.84206727  .00004485  00000-0  10692-3 0  9996
2 43617  93.0310 205.0171 0012539 219.7289 140.3049 15.41537062117063
CUBEBEL-1 (BSUSAT-1)    
1 43666U 18083E   20289.91007037  .00000714  00000-0  37900-4 0  9998
2 43666  97.4828 315.1525 0013542 305.4121 176.2678 15.18481532108899
CICERO 10               
1 43690U 18088A   20289.61449239  .00001042  00000-0  45898-4 0  9991
2 43690  85.0410 359.1418 0013267 222.6737 137.3474 15.20426742107012
IRVINE01                
1 43693U 18088D   20289.45878074  .00002669  00000-0  11014-3 0  9997
2 43693  85.0382 357.5516 0016782 201.8210 158.2320 15.23406879107119
PROXIMA I               
1 43694U 18088E   20289.60025829  .00000967  00000-0  40210-4 0  9997
2 43694  85.0351 357.3805 0018467 194.8015 165.2689 15.22175117107125
PROXIMA II              
1 43696U 18088G   20289.59836997  .00000963  00000-0  40005-4 0  9991
2 43696  85.0352 357.3867 0018506 194.7503 165.3202 15.22175842107117
FACSAT-1                
1 43721U 18096C   20289.90923503  .00001397  00000-0  54364-4 0  9999
2 43721  97.4119   2.7916 0018887  59.8057  56.6935 15.27552498104772
CENTAURI-2              
1 43722U 18096D   20289.86868861  .00002073  00000-0  77850-4 0  9997
2 43722  97.4127   3.1520 0018702  59.7715 300.5373 15.28192830104783
INNOSAT-2               
1 43738U 18096V   20289.90420183  .00002773  00000-0  94549-4 0  9991
2 43738  97.4164   5.6790 0024427  63.9509  55.9496 15.30950719104953
SIRION PATHFINDER-2     
1 43759U 18099B   20289.76233683  .00000863  00000-0  83272-4 0  9997
2 43759  97.6964 359.3042 0015649 137.3354 222.9067 14.95334692101914
CORVUS-BC 4             
1 43767U 18099K   20289.81513675  .00000626  00000-0  62688-4 0  9999
2 43767  97.6932 358.6353 0013040 141.0741 219.1411 14.94771550101884
MOVE-II                 
1 43780U 18099Y   20289.29495053  .00000580  00000-0  57464-4 0  9990
2 43780  97.6965 358.8203 0014358 149.0163 211.1908 14.95516729101823
SPACEBEE-7              
1 43816U 18099BL  20289.88046058  .00000863  00000-0  82335-4 0  9991
2 43816  97.6975 359.8590 0014676 132.8277 227.4181 14.95789174101495
SPACEBEE-5              
1 43817U 18099BM  20289.44557774  .00000501  00000-0  49122-4 0  9992
2 43817  97.7039   0.0869 0014193 134.3400 225.8988 14.96530066101459
SPACEBEE-6              
1 43818U 18099BN  20289.49272640  .00000888  00000-0  84148-4 0  9999
2 43818  97.6997 359.6807 0014606 133.4495 226.7944 14.96019910101597
SHIELDS 1               
1 43850U 18104B   20289.49872703  .00000513  00000-0  20937-4 0  9999
2 43850  85.0257  95.9842 0014642 358.2670   1.8518 15.21486533101726
STF-1                   
1 43852U 18104D   20289.90994950  .00001200  00000-0  51413-4 0  9993
2 43852  85.0300  96.3256 0014862  11.0915 349.0652 15.21514209101763
ZACUBE-2                
1 43907U 18111AH  20289.77000178  .00000548  00000-0  24813-4 0  9995
2 43907  97.2518 185.8235 0023225  78.9138   5.7183 15.24713770100348
LUME 1                  
1 43908U 18111AJ  20289.63944242  .00001116  00000-0  46849-4 0  9995
2 43908  97.2518 185.9587 0022884  78.9726 281.4084 15.25272529100349
AOBA VELOX-IV           
1 43940U 19003J   20289.89928060  .00001894  00000-0  77103-4 0  9990
2 43940  97.2149 336.9860 0024381 153.4525 206.7968 15.25430109 97006
CATSAT-2                
1 44029U 98067PV  20289.83027548  .00025017  00000-0  20907-3 0  9993
2 44029  51.6381  64.1073 0002984 202.9212 157.1652 15.69862164 97402
DELPHINI                
1 44030U 98067PW  20289.62336364  .00032135  00000-0  24770-3 0  9992
2 44030  51.6324  62.5385 0002656 206.4157 153.6706 15.71660071 97375
UNITE                   
1 44031U 98067PX  20289.62261095  .00012970  00000-0  14142-3 0  9998
2 44031  51.6369  75.4400 0002697 171.9146 188.1893 15.63763770 97208
CATSAT-1                
1 44033U 98067PZ  20289.83013710  .00026255  00000-0  21905-3 0  9998
2 44033  51.6385  64.1155 0003000 202.0902 157.9967 15.69872145 97316
RAAVANA-1               
1 44329U 98067QE  20289.63830519  .00013506  00000-0  16650-3 0  9994
2 44329  51.6377  90.6276 0005202  97.8671 262.2913 15.60517972 75752
UGUISU                  
1 44330U 98067QF  20289.46631679  .00014151  00000-0  17495-3 0  9998
2 44330  51.6354  91.6958 0005208  96.5229 263.6358 15.60394591 75701
NEPALISAT-1             
1 44331U 98067QG  20289.62956269  .00013163  00000-0  16237-3 0  9997
2 44331  51.6354  90.5385 0005222 100.0918 260.0664 15.60526853 75749
SPOOQY-1                
1 44332U 98067QH  20289.64213848  .00013137  00000-0  16306-3 0  9997
2 44332  51.6364  90.6310 0004438 103.6429 256.5059 15.60368553 75709
SPACEBEE-9              
1 44370U 19037F   20289.33892448  .00008615  00000-0  18314-3 0  9990
2 44370  45.0052 164.5824 0013382 179.6121 180.4781 15.45389157 73131
SPACEBEE-8              
1 44371U 19037G   20289.08100099  .00023479  00000-0  38767-3 0  9996
2 44371  45.0053 155.0711 0012612 190.2843 169.7793 15.51815050 73202
IOD-1 GEMS              
1 44385U 98067QK  20289.64415340  .00026813  00000-0  27504-3 0  9993
2 44385  51.6376  86.2120 0001238  41.6345 318.4744 15.64741508 73282
MOVE-IIB                
1 44398U 19038N   20289.83168816  .00001239  00000-0  74192-4 0  9993
2 44398  97.5488 249.6290 0026612  72.9205 287.4944 15.12591618 70773
SONATE                  
1 44400U 19038Q   20289.83428877  .00000428  00000-0  28499-4 0  9991
2 44400  97.5533 249.6343 0026740  72.6794 287.7360 15.12071475 70767
LUCKY-7                 
1 44406U 19038W   20289.56340862  .00000743  00000-0  46294-4 0  9997
2 44406  97.5542 249.5137 0026199  73.2410 287.1692 15.12362310 70722
BEESAT 9                
1 44412U 19038AC  20289.88486042  .00000938  00000-0  57357-4 0  9998
2 44412  97.5531 249.8160 0024251  77.5676 282.8266 15.12490309 70475
JAISAT-1                
1 44419U 19038F   20289.60212220  .00000926  00000-0  55921-4 0  9992
2 44419  97.5534 249.8919 0023139  77.4660 282.9158 15.12974274 70764
SWIATOWID               
1 44426U 98067QL  20289.89457470  .00033128  00000-0  31507-3 0  9991
2 44426  51.6378  83.1905 0001611  44.6460  27.1765 15.66524205 73353
KRAKSAT                 
1 44427U 98067QM  20289.90976825  .00009234  00000-0  12810-3 0  9991
2 44427  51.6407  94.4834 0003210  59.3447  62.7444 15.57827847 73243
VCC A                   
1 44428U 98067QN  20289.61996480  .00012711  00000-0  16181-3 0  9998
2 44428  51.6382  92.8050 0002153  74.1185 286.0045 15.59738248 73243
ENTRYSAT                
1 44429U 98067QP  20289.62249002  .00016251  00000-0  19302-3 0  9992
2 44429  51.6361  90.5259 0001610  67.1702 292.9462 15.61326292 73278
VCC C                   
1 44430U 98067QQ  20289.60854666  .00023126  00000-0  25108-3 0  9990
2 44430  51.6364  88.1886 0001127  92.2979 267.8145 15.63385931 72130
VCC B                   
1 44431U 98067QR  20289.48715273  .00012854  00000-0  16305-3 0  9992
2 44431  51.6362  93.3874 0002264  73.0088 287.1153 15.59820554 73163
ATL-1                   
1 44830U 19084G   20283.37625441  .14504533  23319-5  28099-3 0  9997
2 44830  96.9282 155.2233 0011473 239.9810 120.0357 16.46538413 48546
SMOG-P                  
1 44832U 19084J   20272.06303716  .11453400  23230-5  63587-3 0  9997
2 44832  96.9437 144.0914 0010614 231.8961 128.1384 16.41416157 46773
DUCHIFAT-3              
1 44854U 19089C   20289.85227065  .00000309  00000-0  31304-4 0  9995
2 44854  36.9650 106.7773 0009861 315.7289  44.2678 14.99154049 46373
EYESAT-NANO             
1 44877U 19092E   20289.59343132  .00000991  00000-0  53383-4 0  9997
2 44877  97.4573 110.9432 0012735 327.0321  33.0117 15.17051862 45801
ORBITAL FACTORY 2 (OF-2)
1 45113U 19071C   20289.84523628  .00001724  00000-0  63286-4 0  9994
2 45113  51.6430 141.7934 0013455 129.9021 230.3146 15.33811408 39607
